[{"OBJECT_NAME":"ONEWEB-0434","OBJECT_ID":"2022-012K","EPOCH":"2026-03-09T22:08:39.490656","MEAN_MOTION":13.1037589,"ECCENTRICITY":0.00013778,"INCLINATION":87.8776,"RA_OF_ASC_NODE":56.054,"ARG_OF_PERICENTER":67.3836,"MEAN_ANOMALY":292.7437,"EPHEMERIS_TYPE":0,"CLASSIFICATION_TYPE":"U","NORAD_CAT_ID":51631,"ELEMENT_SET_NO":999,"REV_AT_EPOCH":19632,"BSTAR":-0.0010878113,"MEAN_MOTION_DOT":-3.67e-6,"MEAN_MOTION_DDOT":0},{"OBJECT_NAME":"FENGYUN 1C DEB","OBJECT_ID":"1999-025AJQ","EPOCH":"2026-03-09T11:05:29.022144","MEAN_MOTION":13.50021337,"ECCENTRICITY":0.03042863,"INCLINATION":99.5368,"RA_OF_ASC_NODE":152.2216,"ARG_OF_PERICENTER":48.4008,"MEAN_ANOMALY":314.2779,"EPHEMERIS_TYPE":0,"CLASSIFICATION_TYPE":"U","NORAD_CAT_ID":30526,"ELEMENT_SET_NO":999,"REV_AT_EPOCH":93828,"BSTAR":0.0002756743,"MEAN_MOTION_DOT":1.93e-6,"MEAN_MOTION_DDOT":0}]
